{
  "norad_id": 67862,
  "name": "STARLINK-36332",
  "history": [
    {
      "epoch": "2026-03-28T22:00:01.999584",
      "apogee_km": 409.72127722215737,
      "perigee_km": 407.91445409782136,
      "latitude_deg": 36.359135408119734,
      "longitude_deg": -25.797778240172192,
      "semi_major_axis_km": 6786.954865659989,
      "eccentricity": 0.00013311,
      "inclination_deg": 53.1599,
      "raan_deg": 115.5849,
      "arg_perigee_deg": 85.0655,
      "mean_anomaly_deg": 154.822,
      "mean_motion_rev_day": 15.52709894
    },
    {
      "epoch": "2026-03-29T04:00:01.999584",
      "apogee_km": 412.73258273946067,
      "perigee_km": 410.8246164559732,
      "latitude_deg": -53.11639129582565,
      "longitude_deg": -1.7977782401721925,
      "semi_major_axis_km": 6789.915599597716,
      "eccentricity": 0.0001405,
      "inclination_deg": 53.1606,
      "raan_deg": 114.3849,
      "arg_perigee_deg": 83.7449,
      "mean_anomaly_deg": 113.9099,
      "mean_motion_rev_day": 15.51694419
    }
  ]
}